IRIDIUM 36 [-]          
1 24967U 97056C   24069.80924976  .00000737  00000+0  24391-3 0  9999
2 24967  86.4023   7.9909 0002388  84.8458 275.3012 14.36667108385520
IRIDIUM 39 [-]          
1 25042U 97069D   24069.90393238  .00001101  00000+0  29206-3 0  9996
2 25042  86.3898  50.0192 0020380  59.3450 300.9759 14.47738527381758
IRIDIUM 38 [-]          
1 25043U 97069E   24070.47432030  .00000639  00000+0  20876-3 0  9994
2 25043  86.3907  68.1323 0002872 129.5784 230.5668 14.37104438379595
IRIDIUM 42 [-]          
1 25077U 97077A   24070.48041872  .00000586  00000+0  19721-3 0  9999
2 25077  86.3907  73.7374 0002197 106.2602 253.8836 14.35417490374651
IRIDIUM 44 [-]          
1 25078U 97077B   24070.49486150  .00000666  00000+0  20844-3 0  9990
2 25078  86.3924  56.8887 0004051  99.0411 261.1246 14.39239962377010
IRIDIUM 45 [-]          
1 25104U 97082A   24070.06569983  .00011747  00000+0  70768-3 0  9997
2 25104  86.3690 268.6799 0166592 239.0624 119.4145 14.99682557382237
IRIDIUM 24 [-]          
1 25105U 97082B   24070.49613797  .00000503  00000+0  15030-3 0  9997
2 25105  86.3858 276.6681 0012028 159.2711 200.8979 14.41011440376661
IRIDIUM 51 [-]          
1 25262U 98018A   24070.06851675  .00015579  00000+0  78483-3 0  9993
2 25262  86.3879 278.7946 0152687 186.2392 173.6950 15.07339561376684
